QIANFAN-25              
1 61558U 24185G   25293.19928981  .00000887  00000+0  53426-3 0  9998
2 61558  88.9766  84.2424 0010494 109.5767 250.6548 14.05832216 61984
QIANFAN-26              
1 61559U 24185H   25293.15182538  .00000471  00000+0  45817-3 0  9999
2 61559  88.9763  85.5290 0006275 157.3174 202.8270 13.77766546 61297
QIANFAN-27              
1 61560U 24185J   25293.18599573  .00001288  00000+0  52104-3 0  9999
2 61560  88.9761  83.2167 0010052 102.8926 257.3391 14.27229850 62527
QIANFAN-28              
1 61561U 24185K   25293.19322944  .00001640  00000+0  65709-3 0  9994
2 61561  88.9777  83.2147 0009203 102.6239 257.5985 14.27863936 62535
QIANFAN-29              
1 61562U 24185L   25293.19116774  .00000275  00000+0  40746-3 0  9994
2 61562  88.9739  86.8390 0009577 196.6702 163.4136 13.50983468 60567
QIANFAN-30              
1 61563U 24185M   25293.19962306  .00000276  00000+0  41552-3 0  9992
2 61563  88.9758  86.3429 0007558 177.7795 182.3390 13.49960774 60842
QIANFAN-31              
1 61564U 24185N   25293.18752800  .00000311  00000+0  41445-3 0  9999
2 61564  88.9744  86.2309 0007282 173.4941 186.6310 13.57934363 60892
QIANFAN-32              
1 61565U 24185P   25293.19767912  .00000276  00000+0  41108-3 0  9997
2 61565  88.9801  86.4611 0008532 207.8632 152.2063 13.50712128 60815
